[{"OBJECT_NAME":"SSTL S1-4","OBJECT_ID":"2018-071A","EPOCH":"2026-03-09T21:46:24.134592","MEAN_MOTION":14.9621182,"ECCENTRICITY":0.00016592,"INCLINATION":97.5174,"RA_OF_ASC_NODE":304.5632,"ARG_OF_PERICENTER":109.6935,"MEAN_ANOMALY":250.4466,"EPHEMERIS_TYPE":0,"CLASSIFICATION_TYPE":"U","NORAD_CAT_ID":43618,"ELEMENT_SET_NO":999,"REV_AT_EPOCH":40809,"BSTAR":0.00013252792,"MEAN_MOTION_DOT":1.44e-5,"MEAN_MOTION_DDOT":0},{"OBJECT_NAME":"STARLINK-36118","OBJECT_ID":"2025-293G","EPOCH":"2026-03-09T18:52:55.578432","MEAN_MOTION":14.9831791,"ECCENTRICITY":0.00039551,"INCLINATION":70.0019,"RA_OF_ASC_NODE":94.1613,"ARG_OF_PERICENTER":270.0357,"MEAN_ANOMALY":90.0349,"EPHEMERIS_TYPE":0,"CLASSIFICATION_TYPE":"U","NORAD_CAT_ID":67009,"ELEMENT_SET_NO":999,"REV_AT_EPOCH":1490,"BSTAR":0.00042754978,"MEAN_MOTION_DOT":5.011e-5,"MEAN_MOTION_DDOT":0}]
